IRIDIUM 143             
1 43258U 18030K   23272.57892885  .00000475  00000+0  16240-3 0  9993
2 43258  86.4021 344.9568 0002030  99.0030 261.1396 14.34213798287962
IRIDIUM 161             
1 43478U 18047C   23272.59930588  .00000588  00000+0  16879-3 0  9993
2 43478  86.4510 142.9290 0002180  83.1674 276.9775 14.43291294282115
IRIDIUM 152             
1 43479U 18047D   23272.20281073  .00000267  00000+0  88138-4 0  9992
2 43479  86.3985 142.9538 0001941  92.1029 268.0389 14.34218078280305
IRIDIUM 147             
1 43480U 18047E   23272.55797239  .00000038  00000+0  66710-5 0  9997
2 43480  86.3986 142.7937 0002346  84.3713 275.7750 14.34217321280354
IRIDIUM 110             
1 43481U 18047F   23272.56433361  .00000449  00000+0  15310-3 0  9996
2 43481  86.3987 142.8570 0002266  79.8694 280.2757 14.34219747280349
IRIDIUM 160             
1 43569U 18061A   23272.57994210  .00000140  00000+0  42962-4 0  9997
2 43569  86.3923 111.2250 0002225  93.6888 266.4562 14.34217153271243
